{
  "type": "FeatureCollection",
  "features": [
    {
      "type": "Feature",
      "properties": {
        "norad_id": 66410,
        "name": "CHUTIAN-2 B",
        "group": "last-30-days",
        "lat": 56.95106615412398,
        "lon": 32.216826566989766,
        "alt_km": 724.4955204967591,
        "timestamp": "2025-12-06T05:40:08.010315+00:00",
        "meta_object_name": "CHUTIAN-2 B",
        "meta_object_id": "2025-256B",
        "meta_epoch": "2025-12-05T11:11:50.809056",
        "meta_mean_motion": 14.51011196,
        "meta_eccentricity": 0.0013404,
        "meta_inclination": 98.2803,
        "meta_ra_of_asc_node": 44.3934,
        "meta_arg_of_pericenter": 203.633,
        "meta_mean_anomaly": 156.425,
        "meta_ephemeris_type": 0,
        "meta_classification_type": "U",
        "meta_norad_cat_id": 66410,
        "meta_element_set_no": 999,
        "meta_rev_at_epoch": 382,
        "meta_bstar": 0.00034354,
        "meta_mean_motion_dot": 1.316e-05,
        "meta_mean_motion_ddot": 0,
        "tle_line1": "1 66410U 25256B   25339.46656029  .00001316  00000+0  34354-3 0  9999",
        "tle_line2": "2 66410  98.2803  44.3934 0013404 203.6330 156.4250 14.51011196  3820"
      },
      "geometry": {
        "type": "Point",
        "coordinates": [
          32.216826566989766,
          56.95106615412398
        ]
      }
    },
    {
      "type": "Feature",
      "properties": {
        "norad_id": 66411,
        "name": "ZK-1A R/B",
        "group": "last-30-days",
        "lat": -80.21606447373249,
        "lon": 105.66063715692067,
        "alt_km": 411.45995447785754,
        "timestamp": "2025-12-06T05:40:08.010326+00:00",
        "meta_object_name": "ZK-1A R/B",
        "meta_object_id": "2025-256C",
        "meta_epoch": "2025-12-05T04:27:00.218016",
        "meta_mean_motion": 15.01703928,
        "meta_eccentricity": 0.02292035,
        "meta_inclination": 98.3244,
        "meta_ra_of_asc_node": 46.4193,
        "meta_arg_of_pericenter": 270.2295,
        "meta_mean_anomaly": 87.2667,
        "meta_ephemeris_type": 0,
        "meta_classification_type": "U",
        "meta_norad_cat_id": 66411,
        "meta_element_set_no": 999,
        "meta_rev_at_epoch": 391,
        "meta_bstar": 0.0010473445,
        "meta_mean_motion_dot": 0.00024113,
        "meta_mean_motion_ddot": 0,
        "tle_line1": "1 66411U 25256C   25339.18541919  .00024113  00000+0  10473-2 0  9995",
        "tle_line2": "2 66411  98.3244  46.4193 0229203 270.2295  87.2667 15.01703928  3917"
      },
      "geometry": {
        "type": "Point",
        "coordinates": [
          105.66063715692067,
          -80.21606447373249
        ]
      }
    },
    {
      "type": "Feature",
      "properties": {
        "norad_id": 66412,
        "name": "HULIANWANG DIGUI 13A",
        "group": "last-30-days",
        "lat": -45.787344922367936,
        "lon": -130.2965694833537,
        "alt_km": 810.5850668647627,
        "timestamp": "2025-12-06T05:40:08.010341+00:00",
        "meta_object_name": "HULIANWANG DIGUI 13A",
        "meta_object_id": "2025-258A",
        "meta_epoch": "2025-12-05T03:02:07.237824",
        "meta_mean_motion": 14.2349368,
        "meta_eccentricity": 0.00141336,
        "meta_inclination": 50.0042,
        "meta_ra_of_asc_node": 294.0184,
        "meta_arg_of_pericenter": 330.9872,
        "meta_mean_anomaly": 29.0254,
        "meta_ephemeris_type": 0,
        "meta_classification_type": "U",
        "meta_norad_cat_id": 66412,
        "meta_element_set_no": 999,
        "meta_rev_at_epoch": 357,
        "meta_bstar": 0.00012103773,
        "meta_mean_motion_dot": 1.18e-06,
        "meta_mean_motion_ddot": 0,
        "tle_line1": "1 66412U 25258A   25339.12647266  .00000118  00000+0  12104-3 0  9997",
        "tle_line2": "2 66412  50.0042 294.0184 0014133 330.9872  29.0254 14.23493680  3571"
      },
      "geometry": {
        "type": "Point",
        "coordinates": [
          -130.2965694833537,
          -45.787344922367936
        ]
      }
    },
    {
      "type": "Feature",
      "properties": {
        "norad_id": 66413,
        "name": "HULIANWANG DIGUI 13B",
        "group": "last-30-days",
        "lat": -46.496546755472984,
        "lon": 171.62049327444961,
        "alt_km": 816.9798717568165,
        "timestamp": "2025-12-06T05:40:08.010351+00:00",
        "meta_object_name": "HULIANWANG DIGUI 13B",
        "meta_object_id": "2025-258B",
        "meta_epoch": "2025-12-04T20:28:48.239904",
        "meta_mean_motion": 14.23484388,
        "meta_eccentricity": 0.00134513,
        "meta_inclination": 50.0005,
        "meta_ra_of_asc_node": 295.2301,
        "meta_arg_of_pericenter": 330.8315,
        "meta_mean_anomaly": 29.1845,
        "meta_ephemeris_type": 0,
        "meta_classification_type": "U",
        "meta_norad_cat_id": 66413,
        "meta_element_set_no": 999,
        "meta_rev_at_epoch": 353,
        "meta_bstar": 0.00014435936,
        "meta_mean_motion_dot": 1.71e-06,
        "meta_mean_motion_ddot": 0,
        "tle_line1": "1 66413U 25258B   25338.85333611  .00000171  00000+0  14436-3 0  9992",
        "tle_line2": "2 66413  50.0005 295.2301 0013451 330.8315  29.1845 14.23484388  3536"
      },
      "geometry": {
        "type": "Point",
        "coordinates": [
          171.62049327444961,
          -46.496546755472984
        ]
      }
    },
    {
      "type": "Feature",
      "properties": {
        "norad_id": 66414,
        "name": "HULIANWANG DIGUI 13C",
        "group": "last-30-days",
        "lat": -49.931925141764765,
        "lon": -164.17874420616462,
        "alt_km": 813.9718789776198,
        "timestamp": "2025-12-06T05:40:08.010361+00:00",
        "meta_object_name": "HULIANWANG DIGUI 13C",
        "meta_object_id": "2025-258C",
        "meta_epoch": "2025-12-04T23:46:24.159360",
        "meta_mean_motion": 14.23510369,
        "meta_eccentricity": 0.0013574,
        "meta_inclination": 50.0049,
        "meta_ra_of_asc_node": 294.6386,
        "meta_arg_of_pericenter": 329.272,
        "meta_mean_anomaly": 30.7397,
        "meta_ephemeris_type": 0,
        "meta_classification_type": "U",
        "meta_norad_cat_id": 66414,
        "meta_element_set_no": 999,
        "meta_rev_at_epoch": 355,
        "meta_bstar": 0.00015299499,
        "meta_mean_motion_dot": 1.91e-06,
        "meta_mean_motion_ddot": 0,
        "tle_line1": "1 66414U 25258C   25338.99055740  .00000191  00000+0  15299-3 0  9992",
        "tle_line2": "2 66414  50.0049 294.6386 0013574 329.2720  30.7397 14.23510369  3550"
      },
      "geometry": {
        "type": "Point",
        "coordinates": [
          -164.17874420616462,
          -49.931925141764765
        ]
      }
    },
    {
      "type": "Feature",
      "properties": {
        "norad_id": 66415,
        "name": "HULIANWANG DIGUI 13D",
        "group": "last-30-days",
        "lat": -42.59374696951918,
        "lon": -121.18007599372041,
        "alt_km": 810.629962535796,
        "timestamp": "2025-12-06T05:40:08.010372+00:00",
        "meta_object_name": "HULIANWANG DIGUI 13D",
        "meta_object_id": "2025-258D",
        "meta_epoch": "2025-12-04T23:37:54.362208",
        "meta_mean_motion": 14.23498639,
        "meta_eccentricity": 0.00133565,
        "meta_inclination": 50.0043,
        "meta_ra_of_asc_node": 294.6029,
        "meta_arg_of_pericenter": 335.9481,
        "meta_mean_anomaly": 24.0807,
        "meta_ephemeris_type": 0,
        "meta_classification_type": "U",
        "meta_norad_cat_id": 66415,
        "meta_element_set_no": 999,
        "meta_rev_at_epoch": 355,
        "meta_bstar": 0.00015207685,
        "meta_mean_motion_dot": 1.89e-06,
        "meta_mean_motion_ddot": 0,
        "tle_line1": "1 66415U 25258D   25338.98465697  .00000189  00000+0  15208-3 0  9995",
        "tle_line2": "2 66415  50.0043 294.6029 0013356 335.9481  24.0807 14.23498639  3552"
      },
      "geometry": {
        "type": "Point",
        "coordinates": [
          -121.18007599372041,
          -42.59374696951918
        ]
      }
    },
    {
      "type": "Feature",
      "properties": {
        "norad_id": 66416,
        "name": "HULIANWANG DIGUI 13E",
        "group": "last-30-days",
        "lat": -49.62113746358502,
        "lon": -151.4269473673141,
        "alt_km": 814.3322441424762,
        "timestamp": "2025-12-06T05:40:08.010382+00:00",
        "meta_object_name": "HULIANWANG DIGUI 13E",
        "meta_object_id": "2025-258E",
        "meta_epoch": "2025-12-04T13:37:29.545248",
        "meta_mean_motion": 14.23473083,
        "meta_eccentricity": 0.00127373,
        "meta_inclination": 50.0042,
        "meta_ra_of_asc_node": 296.4032,
        "meta_arg_of_pericenter": 336.0461,
        "meta_mean_anomaly": 23.9858,
        "meta_ephemeris_type": 0,
        "meta_classification_type": "U",
        "meta_norad_cat_id": 66416,
        "meta_element_set_no": 999,
        "meta_rev_at_epoch": 349,
        "meta_bstar": 0.00015573528,
        "meta_mean_motion_dot": 1.97e-06,
        "meta_mean_motion_ddot": 0,
        "tle_line1": "1 66416U 25258E   25338.56770307  .00000197  00000+0  15574-3 0  9992",
        "tle_line2": "2 66416  50.0042 296.4032 0012737 336.0461  23.9858 14.23473083  3491"
      },
      "geometry": {
        "type": "Point",
        "coordinates": [
          -151.4269473673141,
          -49.62113746358502
        ]
      }
    }
  ]
}